ONEWEB-0512             
1 54130U 22138T   25140.65314543 -.00000183  00000+0 -48828-3 0  9998
2 54130  87.9248  23.0230 0001428  76.7245 283.4047 13.19724817125031
ONEWEB-0513             
1 54131U 22138U   25140.74759028 -.00000063  00000+0 -18729-3 0  9994
2 54131  87.9246  22.9776 0001406  74.2868 285.8420 13.20261270124933
ONEWEB-0514             
1 54132U 22138V   25140.66894176  .00000026  00000+0  32767-4 0  9996
2 54132  87.9242  22.9888 0001877  79.8261 280.3083 13.19723938125055
ONEWEB-0515             
1 54133U 22138W   25140.62293622  .00000079  00000+0  16232-3 0  9998
2 54133  87.9274 352.5891 0002636  99.0023 261.1409 13.20769952127487
ONEWEB-0516             
1 54134U 22138X   25140.71949012  .00000002  00000+0 -27897-4 0  9997
2 54134  87.9249  23.0128 0001750  84.3927 275.7405 13.19723452125061
ONEWEB-0517             
1 54135U 22138Y   25140.69895882  .00000108  00000+0  23658-3 0  9996
2 54135  87.9242  22.9782 0001914  71.2090 288.9250 13.19723955125069
ONEWEB-0518             
1 54136U 22138Z   25140.71790882  .00000098  00000+0  21248-3 0  9995
2 54136  87.9246  23.0087 0001654  81.8293 278.3027 13.19727449125064
ONEWEB-0519             
1 54137U 22138AA  25140.74317891  .00000071  00000+0  14408-3 0  9995
2 54137  87.9241  22.9623 0001827  73.5761 286.5573 13.19723668125071
